TRANSPORTER-12 OBJECT AZ
1 62656U 25009AZ  26068.71026235  .00016057  00000+0  54903-3 0  9991
2 62656  97.3981 151.9913 0000987  45.3581 314.7740 15.30349724 63792
STARLINK-32952          
1 63146U 25043Q   26068.29760970  .00038903  00000+0  14150-2 0  9991
2 63146  43.0027  25.2453 0002260 286.1266  73.9336 15.27597294 57857
